[{"OBJECT_NAME":"OBJECT K","OBJECT_ID":"2024-092K","EPOCH":"2026-03-09T22:27:09.905184","MEAN_MOTION":15.32834875,"ECCENTRICITY":0.00087198,"INCLINATION":97.6413,"RA_OF_ASC_NODE":198.1023,"ARG_OF_PERICENTER":142.4952,"MEAN_ANOMALY":217.69,"EPHEMERIS_TYPE":0,"CLASSIFICATION_TYPE":"U","NORAD_CAT_ID":59809,"ELEMENT_SET_NO":999,"REV_AT_EPOCH":10001,"BSTAR":0.0007267688,"MEAN_MOTION_DOT":0.00023035,"MEAN_MOTION_DDOT":0},{"OBJECT_NAME":"STARLINK-32248","OBJECT_ID":"2024-171V","EPOCH":"2026-03-09T22:30:46.406304","MEAN_MOTION":15.30202476,"ECCENTRICITY":8.746e-5,"INCLINATION":53.1588,"RA_OF_ASC_NODE":321.4901,"ARG_OF_PERICENTER":160.7344,"MEAN_ANOMALY":199.369,"EPHEMERIS_TYPE":0,"CLASSIFICATION_TYPE":"U","NORAD_CAT_ID":61219,"ELEMENT_SET_NO":999,"REV_AT_EPOCH":8331,"BSTAR":0.00019426748,"MEAN_MOTION_DOT":5.399e-5,"MEAN_MOTION_DDOT":0}]
